{"type": "FeatureCollection", "features": [ {"type": "Feature", "properties": {"norad_id": 58654, "name": "BEIDOU-3 M28 (C50)", "group": "beidou", "lat": 50.88606446928232, "lon": 125.78125693997056, "alt_km": 21528.770065451594, "timestamp": "2025-12-17T09:00:17.413890+00:00", "meta": {"OBJECT_NAME": "BEIDOU-3 M28 (C50)", "OBJECT_ID": "2023-207A", "EPOCH": "2025-12-15T15:50:05.112096", "MEAN_MOTION": 1.8622982, "ECCENTRICITY": 0.00025263, "INCLINATION": 55.587, "RA_OF_ASC_NODE": 68.5025, "ARG_OF_PERICENTER": 270.8998, "MEAN_ANOMALY": 89.0909, "EPHEMERIS_TYPE": 0, "CLASSIFICATION_TYPE": "U", "NORAD_CAT_ID": 58654, "ELEMENT_SET_NO": 999, "REV_AT_EPOCH": 1342, "BSTAR": 0, "MEAN_MOTION_DOT": -8.4e-07, "MEAN_MOTION_DDOT": 0}, "tle": {"line1": "1 58654U 23207A   25349.65978139 -.00000084  00000+0  00000+0 0  9994", "line2": "2 58654  55.5870  68.5025 0002526 270.8998  89.0909  1.86229820 13427"}}, "geometry": {"type": "Point", "coordinates": [125.78125693997056, 50.88606446928232]}}, {"type": "Feature", "properties": {"norad_id": 58655, "name": "BEIDOU-3 M26 (C48)", "group": "beidou", "lat": -21.013074288891417, "lon": -96.31676986341091, "alt_km": 21523.971085210138, "timestamp": "2025-12-17T09:00:17.413901+00:00", "meta": {"OBJECT_NAME": "BEIDOU-3 M26 (C48)", "OBJECT_ID": "2023-207B", "EPOCH": "2025-12-15T23:51:52.176960", "MEAN_MOTION": 1.86231301, "ECCENTRICITY": 0.00039507, "INCLINATION": 55.5893, "RA_OF_ASC_NODE": 68.4775, "ARG_OF_PERICENTER": 256.9, "MEAN_ANOMALY": 103.0764, "EPHEMERIS_TYPE": 0, "CLASSIFICATION_TYPE": "U", "NORAD_CAT_ID": 58655, "ELEMENT_SET_NO": 999, "REV_AT_EPOCH": 1341, "BSTAR": 0, "MEAN_MOTION_DOT": -8.2e-07, "MEAN_MOTION_DDOT": 0}, "tle": {"line1": "1 58655U 23207B   25349.99435390 -.00000082  00000+0  00000+0 0  9997", "line2": "2 58655  55.5893  68.4775 0003950 256.9000 103.0764  1.86231301 13417"}}, "geometry": {"type": "Point", "coordinates": [-96.31676986341091, -21.013074288891417]}}, {"type": "Feature", "properties": {"norad_id": 61186, "name": "BEIDOU-3 M25 (C47)", "group": "beidou", "lat": -29.617918194050603, "lon": -75.2549921304551, "alt_km": 21518.01194979683, "timestamp": "2025-12-17T09:00:17.413912+00:00", "meta": {"OBJECT_NAME": "BEIDOU-3 M25 (C47)", "OBJECT_ID": "2024-168B", "EPOCH": "2025-12-16T08:41:42.146304", "MEAN_MOTION": 1.86230282, "ECCENTRICITY": 0.00054361, "INCLINATION": 54.6387, "RA_OF_ASC_NODE": 308.5944, "ARG_OF_PERICENTER": 298.6165, "MEAN_ANOMALY": 64.9369, "EPHEMERIS_TYPE": 0, "CLASSIFICATION_TYPE": "U", "NORAD_CAT_ID": 61186, "ELEMENT_SET_NO": 999, "REV_AT_EPOCH": 838, "BSTAR": 0, "MEAN_MOTION_DOT": -9.6e-07, "MEAN_MOTION_DDOT": 0}, "tle": {"line1": "1 61186U 24168B   25350.36229336 -.00000096  00000+0  00000+0 0  9996", "line2": "2 61186  54.6387 308.5944 0005436 298.6165  64.9369  1.86230282  8383"}}, "geometry": {"type": "Point", "coordinates": [-75.2549921304551, -29.617918194050603]}}, {"type": "Feature", "properties": {"norad_id": 61187, "name": "BEIDOU-3 M27 (C49)", "group": "beidou", "lat": 53.92039766475911, "lon": 51.614112640759046, "alt_km": 21525.17755462177, "timestamp": "2025-12-17T09:00:17.413923+00:00", "meta": {"OBJECT_NAME": "BEIDOU-3 M27 (C49)", "OBJECT_ID": "2024-168C", "EPOCH": "2025-12-16T16:40:41.983104", "MEAN_MOTION": 1.86230434, "ECCENTRICITY": 0.00024841, "INCLINATION": 54.6339, "RA_OF_ASC_NODE": 308.5665, "ARG_OF_PERICENTER": 338.791, "MEAN_ANOMALY": 22.7228, "EPHEMERIS_TYPE": 0, "CLASSIFICATION_TYPE": "U", "NORAD_CAT_ID": 61187, "ELEMENT_SET_NO": 999, "REV_AT_EPOCH": 586, "BSTAR": 0, "MEAN_MOTION_DOT": -9.5e-07, "MEAN_MOTION_DDOT": 0}, "tle": {"line1": "1 61187U 24168C   25350.69493036 -.00000095  00000+0  00000+0 0  9992", "line2": "2 61187  54.6339 308.5665 0002484 338.7910  22.7228  1.86230434  5860"}}, "geometry": {"type": "Point", "coordinates": [51.614112640759046, 53.92039766475911]}}]}